ONEWEB-0118             
1 47264U 20100G   24092.58939566 -.00000170  00000+0 -50798-3 0  9995
2 47264  87.8994 151.2044 0002615 105.3729 254.7688 13.12445381158925
ONEWEB-0119             
1 47265U 20100H   24092.38927403  .00000346  00000+0  92693-3 0  9994
2 47265  87.8994 151.2826 0001898 101.0858 259.0484 13.12443924158879
ONEWEB-0120             
1 47266U 20100J   24092.56412815  .00000174  00000+0  44826-3 0  9995
2 47266  87.8994 151.2358 0001939 104.1921 255.9423 13.12441806158922
ONEWEB-0121             
1 47267U 20100K   24092.40038582  .00000133  00000+0  33357-3 0  9996
2 47267  87.8988 151.2634 0001854  98.2876 261.8463 13.12443766158816
ONEWEB-0122             
1 47268U 20100L   24092.54796843  .00000241  00000+0  63419-3 0  9995
2 47268  87.8990 151.2388 0001936 105.4506 254.6836 13.12440888158746
ONEWEB-0123             
1 47269U 20100M   24092.39088947  .00000588  00000+0  15990-2 0  9992
2 47269  87.8994 151.2810 0002165 101.3410 258.7961 13.12442101158862
ONEWEB-0124             
1 47270U 20100N   24092.60845392  .00000508  00000+0  13772-2 0  9991
2 47270  87.8995 151.2341 0001718  95.5015 264.6310 13.12445748158776
ONEWEB-0125             
1 47271U 20100P   24092.58304716 -.00000262  00000+0 -76451-3 0  9992
2 47271  87.8994 151.1969 0002258  92.1780 267.9607 13.12443162158833
